[{"OBJECT_NAME":"OBJECT D","OBJECT_ID":"2023-091D","EPOCH":"2026-03-09T22:26:22.181280","MEAN_MOTION":15.22514214,"ECCENTRICITY":0.00120544,"INCLINATION":97.5229,"RA_OF_ASC_NODE":130.3318,"ARG_OF_PERICENTER":91.7077,"MEAN_ANOMALY":268.554,"EPHEMERIS_TYPE":0,"CLASSIFICATION_TYPE":"U","NORAD_CAT_ID":57169,"ELEMENT_SET_NO":999,"REV_AT_EPOCH":14905,"BSTAR":0.00044221161,"MEAN_MOTION_DOT":0.00010204,"MEAN_MOTION_DDOT":0},{"OBJECT_NAME":"YAOGAN-43 02D","OBJECT_ID":"2024-156D","EPOCH":"2026-03-09T13:08:17.964960","MEAN_MOTION":15.23237701,"ECCENTRICITY":0.000368,"INCLINATION":34.992,"RA_OF_ASC_NODE":104.6408,"ARG_OF_PERICENTER":78.2879,"MEAN_ANOMALY":281.8248,"EPHEMERIS_TYPE":0,"CLASSIFICATION_TYPE":"U","NORAD_CAT_ID":60948,"ELEMENT_SET_NO":999,"REV_AT_EPOCH":8424,"BSTAR":0.00047394,"MEAN_MOTION_DOT":0.0001148,"MEAN_MOTION_DDOT":0}]
